STARLINK-2216
1 18012C 21024AM  21326.12295837  .00002399  00000-0  16074-3 0  3263
2 18012  53.0541 133.1758 0001638  77.6295 179.2422 15.06391885    11
